[{"OBJECT_NAME":"TEVEL2-6","OBJECT_ID":"2025-052F","EPOCH":"2026-03-09T15:35:24.554400","MEAN_MOTION":15.30760889,"ECCENTRICITY":0.0004769,"INCLINATION":97.4016,"RA_OF_ASC_NODE":325.0381,"ARG_OF_PERICENTER":95.6604,"MEAN_ANOMALY":264.5181,"EPHEMERIS_TYPE":0,"CLASSIFICATION_TYPE":"U","NORAD_CAT_ID":63215,"ELEMENT_SET_NO":999,"REV_AT_EPOCH":5486,"BSTAR":0.00070909,"MEAN_MOTION_DOT":0.00021046,"MEAN_MOTION_DDOT":0},{"OBJECT_NAME":"STARLINK-33747","OBJECT_ID":"2025-069M","EPOCH":"2026-03-09T11:25:30.878112","MEAN_MOTION":15.30202464,"ECCENTRICITY":0.00013025,"INCLINATION":53.1586,"RA_OF_ASC_NODE":143.3523,"ARG_OF_PERICENTER":87.4041,"MEAN_ANOMALY":272.7109,"EPHEMERIS_TYPE":0,"CLASSIFICATION_TYPE":"U","NORAD_CAT_ID":63444,"ELEMENT_SET_NO":999,"REV_AT_EPOCH":5332,"BSTAR":0.00089821112,"MEAN_MOTION_DOT":0.0002634,"MEAN_MOTION_DDOT":0}]
